STARLINK-31661          
1 59735U 24090F   26068.37613600  .00001996  00000+0  82050-4 0  9995
2 59735  43.0005 178.2217 0002021 270.9730  89.0890 15.27578506103479
TEVEL2-7                
1 63238U 25052AE  26068.66113295  .00019244  00000+0  69668-3 0  9998
2 63238  97.4054 324.3041 0008105 124.6830 235.5175 15.28414096 54803
