[{"OBJECT_NAME":"STARLINK-31661","OBJECT_ID":"2024-090F","EPOCH":"2026-03-09T09:01:38.150400","MEAN_MOTION":15.27578506,"ECCENTRICITY":0.00020211,"INCLINATION":43.0005,"RA_OF_ASC_NODE":178.2217,"ARG_OF_PERICENTER":270.973,"MEAN_ANOMALY":89.089,"EPHEMERIS_TYPE":0,"CLASSIFICATION_TYPE":"U","NORAD_CAT_ID":59735,"ELEMENT_SET_NO":999,"REV_AT_EPOCH":10347,"BSTAR":8.2049677e-5,"MEAN_MOTION_DOT":1.996e-5,"MEAN_MOTION_DDOT":0},{"OBJECT_NAME":"TEVEL2-7","OBJECT_ID":"2025-052AE","EPOCH":"2026-03-09T15:52:01.887744","MEAN_MOTION":15.28414096,"ECCENTRICITY":0.00081048,"INCLINATION":97.4054,"RA_OF_ASC_NODE":324.3041,"ARG_OF_PERICENTER":124.683,"MEAN_ANOMALY":235.5175,"EPHEMERIS_TYPE":0,"CLASSIFICATION_TYPE":"U","NORAD_CAT_ID":63238,"ELEMENT_SET_NO":999,"REV_AT_EPOCH":5480,"BSTAR":0.00069668191,"MEAN_MOTION_DOT":0.00019244,"MEAN_MOTION_DDOT":0}]
